DRUMS                   
1 49401U 21102G   26068.66810207  .00006670  00000+0  31687-3 0  9992
2 49401  97.3433 108.4998 0014519 215.9930 144.0328 15.19452308238460
LYRA-1                  
1 62664U 25009BH  26068.72653405  .00011728  00000+0  59700-3 0  9996
2 62664  97.4045 145.5025 0009825 171.7868 188.3529 15.16922567 63334
